{"type": "FeatureCollection", "features": [ {"type": "Feature", "properties": {"norad_id": 31040, "name": "FENGYUN 1C DEB", "group": "fengyun-1c-debris", "lat": 19.107809821246846, "lon": -20.706924852719414, "alt_km": 875.063178449358, "timestamp": "2025-12-18T14:52:08.306042+00:00", "meta": {"OBJECT_NAME": "FENGYUN 1C DEB", "OBJECT_ID": "1999-025BEJ", "EPOCH": "2025-12-18T04:53:53.053728", "MEAN_MOTION": 14.17678679, "ECCENTRICITY": 0.00625718, "INCLINATION": 98.6581, "RA_OF_ASC_NODE": 341.914, "ARG_OF_PERICENTER": 178.3319, "MEAN_ANOMALY": 242.2484, "EPHEMERIS_TYPE": 0, "CLASSIFICATION_TYPE": "U", "NORAD_CAT_ID": 31040, "ELEMENT_SET_NO": 999, "REV_AT_EPOCH": 96784, "BSTAR": 0.00025034277, "MEAN_MOTION_DOT": 4.77e-06, "MEAN_MOTION_DDOT": 0}, "tle": {"line1": "1 31040U 99025BEJ 25352.20408627  .00000477  00000+0  25034-3 0  9993", "line2": "2 31040  98.6581 341.9140 0062571 178.3319 242.2484 14.17678679967848"}}, "geometry": {"type": "Point", "coordinates": [-20.706924852719414, 19.107809821246846]}}, {"type": "Feature", "properties": {"norad_id": 31041, "name": "FENGYUN 1C DEB", "group": "fengyun-1c-debris", "lat": -77.3007172427323, "lon": 155.4537329703285, "alt_km": 793.1231939824593, "timestamp": "2025-12-18T14:52:08.306052+00:00", "meta": {"OBJECT_NAME": "FENGYUN 1C DEB", "OBJECT_ID": "1999-025BEK", "EPOCH": "2025-12-17T07:08:56.502816", "MEAN_MOTION": 14.17878855, "ECCENTRICITY": 0.00870718, "INCLINATION": 99.2051, "RA_OF_ASC_NODE": 20.1057, "ARG_OF_PERICENTER": 307.2564, "MEAN_ANOMALY": 52.0691, "EPHEMERIS_TYPE": 0, "CLASSIFICATION_TYPE": "U", "NORAD_CAT_ID": 31041, "ELEMENT_SET_NO": 999, "REV_AT_EPOCH": 95554, "BSTAR": 0.0018164278, "MEAN_MOTION_DOT": 3.806e-05, "MEAN_MOTION_DDOT": 0}, "tle": {"line1": "1 31041U 99025BEK 25351.29787619  .00003806  00000+0  18164-2 0  9997", "line2": "2 31041  99.2051  20.1057 0087071 307.2564  52.0691 14.17878855955547"}}, "geometry": {"type": "Point", "coordinates": [155.4537329703285, -77.3007172427323]}}, {"type": "Feature", "properties": {"norad_id": 31043, "name": "FENGYUN 1C DEB", "group": "fengyun-1c-debris", "lat": 69.4155067844321, "lon": -13.990234305848908, "alt_km": 854.6659898246344, "timestamp": "2025-12-18T14:52:08.306062+00:00", "meta": {"OBJECT_NAME": "FENGYUN 1C DEB", "OBJECT_ID": "1999-025BEM", "EPOCH": "2025-12-18T07:47:27.480768", "MEAN_MOTION": 14.08438325, "ECCENTRICITY": 0.00411074, "INCLINATION": 98.7641, "RA_OF_ASC_NODE": 9.9752, "ARG_OF_PERICENTER": 348.2705, "MEAN_ANOMALY": 28.0899, "EPHEMERIS_TYPE": 0, "CLASSIFICATION_TYPE": "U", "NORAD_CAT_ID": 31043, "ELEMENT_SET_NO": 999, "REV_AT_EPOCH": 96066, "BSTAR": 0.00040713799, "MEAN_MOTION_DOT": 6.6e-06, "MEAN_MOTION_DDOT": 0}, "tle": {"line1": "1 31043U 99025BEM 25352.32462362  .00000660  00000+0  40714-3 0  9991", "line2": "2 31043  98.7641   9.9752 0041107 348.2705  28.0899 14.08438325960663"}}, "geometry": {"type": "Point", "coordinates": [-13.990234305848908, 69.4155067844321]}}, {"type": "Feature", "properties": {"norad_id": 31046, "name": "FENGYUN 1C DEB", "group": "fengyun-1c-debris", "lat": -18.21109455587386, "lon": 115.80178446380256, "alt_km": 692.4437590482121, "timestamp": "2025-12-18T14:52:08.306072+00:00", "meta": {"OBJECT_NAME": "FENGYUN 1C DEB", "OBJECT_ID": "1999-025BEQ", "EPOCH": "2025-12-18T00:27:53.949888", "MEAN_MOTION": 14.64002329, "ECCENTRICITY": 0.0045755, "INCLINATION": 98.9679, "RA_OF_ASC_NODE": 112.1709, "ARG_OF_PERICENTER": 86.689, "MEAN_ANOMALY": 334.1966, "EPHEMERIS_TYPE": 0, "CLASSIFICATION_TYPE": "U", "NORAD_CAT_ID": 31046, "ELEMENT_SET_NO": 999, "REV_AT_EPOCH": 96720, "BSTAR": 0.0027912089, "MEAN_MOTION_DOT": 0.00014825, "MEAN_MOTION_DDOT": 0}, "tle": {"line1": "1 31046U 99025BEQ 25352.01937442  .00014825  00000+0  27912-2 0  9998", "line2": "2 31046  98.9679 112.1709 0045755  86.6890 334.1966 14.64002329967205"}}, "geometry": {"type": "Point", "coordinates": [115.80178446380256, -18.21109455587386]}}, {"type": "Feature", "properties": {"norad_id": 31047, "name": "FENGYUN 1C DEB", "group": "fengyun-1c-debris", "lat": 23.057711871644226, "lon": 173.63217108928558, "alt_km": 827.050171985291, "timestamp": "2025-12-18T14:52:08.306095+00:00", "meta": {"OBJECT_NAME": "FENGYUN 1C DEB", "OBJECT_ID": "1999-025BER", "EPOCH": "2025-12-16T23:19:58.679616", "MEAN_MOTION": 14.13849323, "ECCENTRICITY": 0.00259352, "INCLINATION": 98.7008, "RA_OF_ASC_NODE": 348.2917, "ARG_OF_PERICENTER": 165.8146, "MEAN_ANOMALY": 250.7611, "EPHEMERIS_TYPE": 0, "CLASSIFICATION_TYPE": "U", "NORAD_CAT_ID": 31047, "ELEMENT_SET_NO": 999, "REV_AT_EPOCH": 96419, "BSTAR": 0.00037748147, "MEAN_MOTION_DOT": 6.75e-06, "MEAN_MOTION_DDOT": 0}, "tle": {"line1": "1 31047U 99025BER 25350.97220694  .00000675  00000+0  37748-3 0  9993", "line2": "2 31047  98.7008 348.2917 0025935 165.8146 250.7611 14.13849323964197"}}, "geometry": {"type": "Point", "coordinates": [173.63217108928558, 23.057711871644226]}}, {"type": "Feature", "properties": {"norad_id": 31051, "name": "FENGYUN 1C DEB", "group": "fengyun-1c-debris", "lat": 28.63773474349208, "lon": 18.128727655677366, "alt_km": 881.6723775139008, "timestamp": "2025-12-18T14:52:08.306105+00:00", "meta": {"OBJECT_NAME": "FENGYUN 1C DEB", "OBJECT_ID": "1999-025BEV", "EPOCH": "2025-12-12T21:48:30.367584", "MEAN_MOTION": 14.03033745, "ECCENTRICITY": 0.00534524, "INCLINATION": 98.8183, "RA_OF_ASC_NODE": 17.4591, "ARG_OF_PERICENTER": 135.0078, "MEAN_ANOMALY": 225.5438, "EPHEMERIS_TYPE": 0, "CLASSIFICATION_TYPE": "U", "NORAD_CAT_ID": 31051, "ELEMENT_SET_NO": 999, "REV_AT_EPOCH": 63821, "BSTAR": 0.00016986752, "MEAN_MOTION_DOT": 2.25e-06, "MEAN_MOTION_DDOT": 0}, "tle": {"line1": "1 31051U 99025BEV 25346.90868481  .00000225  00000+0  16987-3 0  9991", "line2": "2 31051  98.8183  17.4591 0053452 135.0078 225.5438 14.03033745638218"}}, "geometry": {"type": "Point", "coordinates": [18.128727655677366, 28.63773474349208]}}, {"type": "Feature", "properties": {"norad_id": 31053, "name": "FENGYUN 1C DEB", "group": "fengyun-1c-debris", "lat": 46.05545736923778, "lon": 105.44312322751826, "alt_km": 780.6515076094165, "timestamp": "2025-12-18T14:52:08.306115+00:00", "meta": {"OBJECT_NAME": "FENGYUN 1C DEB", "OBJECT_ID": "1999-025BEX", "EPOCH": "2025-12-17T14:12:59.745024", "MEAN_MOTION": 13.75888254, "ECCENTRICITY": 0.03088055, "INCLINATION": 98.794, "RA_OF_ASC_NODE": 113.7353, "ARG_OF_PERICENTER": 82.013, "MEAN_ANOMALY": 281.5941, "EPHEMERIS_TYPE": 0, "CLASSIFICATION_TYPE": "U", "NORAD_CAT_ID": 31053, "ELEMENT_SET_NO": 999, "REV_AT_EPOCH": 93543, "BSTAR": 0.0010857587, "MEAN_MOTION_DOT": 1.455e-05, "MEAN_MOTION_DDOT": 0}, "tle": {"line1": "1 31053U 99025BEX 25351.59235816  .00001455  00000+0  10858-2 0  9990", "line2": "2 31053  98.7940 113.7353 0308805  82.0130 281.5941 13.75888254935437"}}, "geometry": {"type": "Point", "coordinates": [105.44312322751826, 46.05545736923778]}}, {"type": "Feature", "properties": {"norad_id": 31054, "name": "FENGYUN 1C DEB", "group": "fengyun-1c-debris", "lat": -57.0615006987028, "lon": 171.81615797438985, "alt_km": 864.2787106083506, "timestamp": "2025-12-18T14:52:08.306125+00:00", "meta": {"OBJECT_NAME": "FENGYUN 1C DEB", "OBJECT_ID": "1999-025BEY", "EPOCH": "2025-12-18T07:02:32.055648", "MEAN_MOTION": 14.12173261, "ECCENTRICITY": 0.00107754, "INCLINATION": 98.6898, "RA_OF_ASC_NODE": 5.1539, "ARG_OF_PERICENTER": 106.1501, "MEAN_ANOMALY": 274.8181, "EPHEMERIS_TYPE": 0, "CLASSIFICATION_TYPE": "U", "NORAD_CAT_ID": 31054, "ELEMENT_SET_NO": 999, "REV_AT_EPOCH": 96842, "BSTAR": 0.00013053316, "MEAN_MOTION_DOT": 1.97e-06, "MEAN_MOTION_DDOT": 0}, "tle": {"line1": "1 31054U 99025BEY 25352.29342657  .00000197  00000+0  13053-3 0  9994", "line2": "2 31054  98.6898   5.1539 0010775 106.1501 274.8181 14.12173261968428"}}, "geometry": {"type": "Point", "coordinates": [171.81615797438985, -57.0615006987028]}}, {"type": "Feature", "properties": {"norad_id": 31055, "name": "FENGYUN 1C DEB", "group": "fengyun-1c-debris", "lat": -36.38479301329561, "lon": 30.2010666463201, "alt_km": 857.877381348867, "timestamp": "2025-12-18T14:52:08.306136+00:00", "meta": {"OBJECT_NAME": "FENGYUN 1C DEB", "OBJECT_ID": "1999-025BEZ", "EPOCH": "2025-12-18T01:41:11.862816", "MEAN_MOTION": 14.10383215, "ECCENTRICITY": 0.00241229, "INCLINATION": 98.7594, "RA_OF_ASC_NODE": 23.1427, "ARG_OF_PERICENTER": 256.3258, "MEAN_ANOMALY": 159.3621, "EPHEMERIS_TYPE": 0, "CLASSIFICATION_TYPE": "U", "NORAD_CAT_ID": 31055, "ELEMENT_SET_NO": 999, "REV_AT_EPOCH": 96197, "BSTAR": 0.00026079082, "MEAN_MOTION_DOT": 4.21e-06, "MEAN_MOTION_DDOT": 0}, "tle": {"line1": "1 31055U 99025BEZ 25352.07027619  .00000421  00000+0  26079-3 0  9991", "line2": "2 31055  98.7594  23.1427 0024122 256.3258 159.3621 14.10383215961976"}}, "geometry": {"type": "Point", "coordinates": [30.2010666463201, -36.38479301329561]}}, {"type": "Feature", "properties": {"norad_id": 31056, "name": "FENGYUN 1C DEB", "group": "fengyun-1c-debris", "lat": 8.980771177229801, "lon": -26.377370764565086, "alt_km": 833.0187762191972, "timestamp": "2025-12-18T14:52:08.306146+00:00", "meta": {"OBJECT_NAME": "FENGYUN 1C DEB", "OBJECT_ID": "1999-025BFA", "EPOCH": "2025-12-17T10:42:02.323872", "MEAN_MOTION": 14.1431294, "ECCENTRICITY": 0.0025232, "INCLINATION": 98.6675, "RA_OF_ASC_NODE": 333.8653, "ARG_OF_PERICENTER": 329.2743, "MEAN_ANOMALY": 187.2529, "EPHEMERIS_TYPE": 0, "CLASSIFICATION_TYPE": "U", "NORAD_CAT_ID": 31056, "ELEMENT_SET_NO": 999, "REV_AT_EPOCH": 96884, "BSTAR": 0.00034026654, "MEAN_MOTION_DOT": 6.09e-06, "MEAN_MOTION_DDOT": 0}, "tle": {"line1": "1 31056U 99025BFA 25351.44586023  .00000609  00000+0  34027-3 0  9991", "line2": "2 31056  98.6675 333.8653 0025232 329.2743 187.2529 14.14312940968841"}}, "geometry": {"type": "Point", "coordinates": [-26.377370764565086, 8.980771177229801]}}]}